{
  "type": "FeatureCollection",
  "features": [
    {
      "type": "Feature",
      "properties": {
        "name": "Gosaikunda Rural Municipality",
        "district": "Rasuwa",
        "population": 7855,
        "zone": "North/Langtang"
      },
      "geometry": {
        "type": "LineString",
        "coordinates": [
          [
            85.2283721,
            28.0850991
          ],
          [
            85.2289391,
            28.0855527
          ],
          [
            85.2294416,
            28.0877716
          ],
          [
            85.2302603,
            28.0878755
          ],
          [
            85.2318944,
            28.0894606
          ],
          [
            85.2360566,
            28.0909346
          ],
          [
            85.2403983,
            28.0914026
          ],
          [
            85.2428402,
            28.0926072
          ],
          [
            85.2469532,
            28.0920309
          ],
          [
            85.2500951,
            28.0923575
          ],
          [
            85.2538052,
            28.0935665
          ],
          [
            85.2549835,
            28.0945493
          ],
          [
            85.2610475,
            28.0958648
          ],
          [
            85.2669283,
            28.1024236
          ],
          [
            85.2688067,
            28.1026512
          ],
          [
            85.2690535,
            28.103398
          ],
          [
            85.2708758,
            28.1042636
          ],
          [
            85.2723506,
            28.1067812
          ],
          [
            85.2743947,
            28.1076544
          ],
          [
            85.2770582,
            28.1097119
          ],
          [
            85.2774212,
            28.1108268
          ],
          [
            85.278421,
            28.1110712
          ],
          [
            85.2809148,
            28.1130787
          ],
          [
            85.2827899,
            28.1164026
          ],
          [
            85.2876514,
            28.1188346
          ],
          [
            85.2889962,
            28.1203699
          ],
          [
            85.2907568,
            28.12126
          ],
          [
            85.2910989,
            28.1221403
          ],
          [
            85.2931346,
            28.123259
          ],
          [
            85.2948997,
            28.1253546
          ],
          [
            85.297537,
            28.1265268
          ],
          [
            85.2987956,
            28.128339
          ],
          [
            85.3004577,
            28.1297003
          ],
          [
            85.3009506,
            28.132629
          ],
          [
            85.3026116,
            28.1338612
          ],
          [
            85.3046923,
            28.1375475
          ],
          [
            85.3075203,
            28.1406605
          ],
          [
            85.3098749,
            28.1422681
          ],
          [
            85.3120848,
            28.1417867
          ],
          [
            85.3128869,
            28.1433188
          ],
          [
            85.3129621,
            28.1451057
          ],
          [
            85.316305,
            28.1460437
          ],
          [
            85.3178858,
            28.1478651
          ],
          [
            85.3192893,
            28.1481175
          ],
          [
            85.3227554,
            28.1507533
          ],
          [
            85.324774,
            28.1513628
          ],
          [
            85.3244054,
            28.1527763
          ],
          [
            85.3207576,
            28.1571938
          ],
          [
            85.3155327,
            28.1604004
          ],
          [
            85.3193092,
            28.1648554
          ],
          [
            85.3312611,
            28.1733393
          ],
          [
            85.3344798,
            28.1768954
          ],
          [
            85.3377628,
            28.1821725
          ],
          [
            85.3427186,
            28.1812149
          ],
          [
            85.3485733,
            28.1918933
          ],
          [
            85.350415,
            28.1965449
          ],
          [
            85.34657,
            28.1984775
          ],
          [
            85.3389299,
            28.1995805
          ],
          [
            85.321296,
            28.2078116
          ],
          [
            85.317149,
            28.2083219
          ],
          [
            85.3139734,
            28.2077952
          ],
          [
            85.3127779,
            28.2118775
          ],
          [
            85.3127592,
            28.2168651
          ],
          [
            85.3102001,
            28.2204533
          ],
          [
            85.308687,
            28.2325175
          ],
          [
            85.3095276,
            28.2353318
          ],
          [
            85.3091727,
            28.2371585
          ],
          [
            85.3040731,
            28.2436424
          ],
          [
            85.3029149,
            28.2475753
          ],
          [
            85.3021117,
            28.252808
          ],
          [
            85.3008601,
            28.2562634
          ],
          [
            85.2986185,
            28.2591757
          ],
          [
            85.2875973,
            28.2671554
          ],
          [
            85.278799,
            28.2750358
          ],
          [
            85.276408,
            28.2783753
          ],
          [
            85.27355,
            28.2809087
          ],
          [
            85.2730082,
            28.2822247
          ],
          [
            85.2717006,
            28.283442
          ],
          [
            85.2716539,
            28.2842756
          ],
          [
            85.2716259,
            28.2851692
          ],
          [
            85.2732681,
            28.2873832
          ],
          [
            85.2924673,
            28.2874359
          ],
          [
            85.2945301,
            28.2894454
          ],
          [
            85.2974145,
            28.2907591
          ],
          [
            85.2995766,
            28.2900856
          ],
          [
            85.3019539,
            28.2900572
          ],
          [
            85.3054495,
            28.2912483
          ],
          [
            85.3077392,
            28.2910545
          ],
          [
            85.3099903,
            28.2920095
          ],
          [
            85.3122381,
            28.2921484
          ],
          [
            85.3181795,
            28.2939872
          ],
          [
            85.3198464,
            28.2949259
          ],
          [
            85.3211517,
            28.2947836
          ],
          [
            85.3233739,
            28.2973428
          ],
          [
            85.3257082,
            28.2987709
          ],
          [
            85.3323485,
            28.3001572
          ],
          [
            85.3362323,
            28.3025244
          ],
          [
            85.3401032,
            28.3036095
          ],
          [
            85.3439154,
            28.3022085
          ],
          [
            85.346846,
            28.3021617
          ],
          [
            85.3481225,
            28.3011949
          ],
          [
            85.3482435,
            28.2932356
          ],
          [
            85.3470461,
            28.2912749
          ],
          [
            85.3477175,
            28.288913
          ],
          [
            85.3490526,
            28.2876384
          ],
          [
            85.3516839,
            28.2865935
          ],
          [
            85.3549141,
            28.2868717
          ],
          [
            85.358975,
            28.2858157
          ],
          [
            85.3697966,
            28.2856873
          ],
          [
            85.3753012,
            28.2824986
          ],
          [
            85.3767696,
            28.2799908
          ],
          [
            85.3769757,
            28.2780384
          ],
          [
            85.3773193,
            28.2779361
          ],
          [
            85.3862287,
            28.2845853
          ],
          [
            85.3880944,
            28.2868759
          ],
          [
            85.3920291,
            28.2881071
          ],
          [
            85.3938028,
            28.2908885
          ],
          [
            85.3967139,
            28.2938863
          ],
          [
            85.3972292,
            28.2951474
          ],
          [
            85.3974222,
            28.2981681
          ],
          [
            85.4000713,
            28.2992639
          ],
          [
            85.4009685,
            28.3002569
          ],
          [
            85.4047451,
            28.3023335
          ],
          [
            85.4079377,
            28.3050128
          ],
          [
            85.4090651,
            28.3065343
          ],
          [
            85.4118326,
            28.3085532
          ],
          [
            85.413417,
            28.3127093
          ],
          [
            85.4140585,
            28.3168606
          ],
          [
            85.4131692,
            28.3234051
          ],
          [
            85.4143394,
            28.3264835
          ],
          [
            85.4159033,
            28.3274134
          ],
          [
            85.4174862,
            28.3272854
          ],
          [
            85.4215843,
            28.3295329
          ],
          [
            85.4248982,
            28.3301048
          ],
          [
            85.4305251,
            28.3302061
          ],
          [
            85.4352302,
            28.3338934
          ],
          [
            85.4379095,
            28.3349714
          ],
          [
            85.4503833,
            28.3349317
          ],
          [
            85.4596001,
            28.3365073
          ],
          [
            85.464366,
            28.3357771
          ],
          [
            85.4680649,
            28.3344129
          ],
          [
            85.4737965,
            28.3333564
          ],
          [
            85.4838601,
            28.3331307
          ],
          [
            85.4866622,
            28.3311979
          ],
          [
            85.4900083,
            28.330914
          ],
          [
            85.4926591,
            28.3318845
          ],
          [
            85.4999157,
            28.3326406
          ],
          [
            85.5021828,
            28.3337533
          ],
          [
            85.5036061,
            28.3337287
          ],
          [
            85.5087215,
            28.3326339
          ],
          [
            85.5106626,
            28.3314516
          ],
          [
            85.5179981,
            28.3305345
          ],
          [
            85.5219752,
            28.3287619
          ],
          [
            85.5245966,
            28.3281873
          ],
          [
            85.5349625,
            28.3226171
          ],
          [
            85.53601,
            28.3211568
          ],
          [
            85.5377053,
            28.3201784
          ],
          [
            85.5436743,
            28.3178826
          ],
          [
            85.5469094,
            28.31465
          ],
          [
            85.5516124,
            28.3133516
          ],
          [
            85.558102,
            28.3102428
          ],
          [
            85.559401,
            28.310143
          ],
          [
            85.5607004,
            28.3089701
          ],
          [
            85.5662188,
            28.309451
          ],
          [
            85.5689587,
            28.3081131
          ],
          [
            85.5712781,
            28.3088687
          ],
          [
            85.5760534,
            28.3091091
          ],
          [
            85.5781882,
            28.3081858
          ],
          [
            85.5796129,
            28.3056603
          ],
          [
            85.5808864,
            28.3049923
          ],
          [
            85.5869569,
            28.3076224
          ],
          [
            85.5946168,
            28.3067926
          ],
          [
            85.5979705,
            28.3047188
          ],
          [
            85.6005112,
            28.3039235
          ],
          [
            85.596411,
            28.2994569
          ],
          [
            85.5960612,
            28.2968147
          ],
          [
            85.596463,
            28.2925618
          ],
          [
            85.5970078,
            28.2906497
          ],
          [
            85.598013,
            28.2896602
          ],
          [
            85.5982704,
            28.2886419
          ],
          [
            85.5981266,
            28.2871998
          ],
          [
            85.5987175,
            28.2845965
          ],
          [
            85.5981754,
            28.2813532
          ],
          [
            85.5994018,
            28.2763084
          ],
          [
            85.600291,
            28.2748084
          ],
          [
            85.6011114,
            28.2687073
          ],
          [
            85.6024946,
            28.2666956
          ],
          [
            85.6031252,
            28.2637122
          ],
          [
            85.6056836,
            28.2624181
          ],
          [
            85.6062486,
            28.2563148
          ],
          [
            85.6077331,
            28.2562018
          ],
          [
            85.6141244,
            28.2594548
          ],
          [
            85.6195786,
            28.2610231
          ],
          [
            85.6225904,
            28.2638596
          ],
          [
            85.624765,
            28.264115
          ],
          [
            85.6263503,
            28.2649507
          ],
          [
            85.630524,
            28.2706835
          ],
          [
            85.6366907,
            28.2732639
          ],
          [
            85.6390681,
            28.2766267
          ],
          [
            85.6399668,
            28.2790564
          ],
          [
            85.6418206,
            28.2804781
          ],
          [
            85.6425183,
            28.2829
          ],
          [
            85.644649,
            28.2866317
          ],
          [
            85.645678,
            28.2900461
          ],
          [
            85.6499572,
            28.2919215
          ],
          [
            85.6519349,
            28.2953905
          ],
          [
            85.6621989,
            28.3031263
          ],
          [
            85.6613589,
            28.3059939
          ],
          [
            85.6575193,
            28.3099096
          ],
          [
            85.6533745,
            28.315644
          ],
          [
            85.6533827,
            28.3169149
          ],
          [
            85.6544809,
            28.3191997
          ],
          [
            85.6561793,
            28.3209129
          ],
          [
            85.6572178,
            28.3237779
          ],
          [
            85.6615049,
            28.3253274
          ],
          [
            85.6632586,
            28.32947
          ],
          [
            85.665019,
            28.3310806
          ],
          [
            85.6644436,
            28.3339558
          ],
          [
            85.6658079,
            28.3370608
          ],
          [
            85.6662415,
            28.3398061
          ],
          [
            85.6655964,
            28.3422798
          ],
          [
            85.6669557,
            28.3454153
          ],
          [
            85.6655864,
            28.3475217
          ],
          [
            85.6760172,
            28.3500985
          ],
          [
            85.6812594,
            28.3487223
          ],
          [
            85.6823434,
            28.347017
          ],
          [
            85.6862073,
            28.3454583
          ],
          [
            85.6836155,
            28.382157
          ],
          [
            85.693033,
            28.38363
          ],
          [
            85.693767,
            28.384511
          ],
          [
            85.698614,
            28.384364
          ],
          [
            85.700817,
            28.383777
          ],
          [
            85.711978,
            28.385833
          ],
          [
            85.711684,
            28.384364
          ],
          [
            85.712272,
            28.383043
          ],
          [
            85.716678,
            28.375993
          ],
          [
            85.718293,
            28.374525
          ],
          [
            85.722258,
            28.372762
          ],
          [
            85.719762,
            28.368797
          ],
          [
            85.719321,
            28.366888
          ],
          [
            85.720055,
            28.362482
          ],
          [
            85.719615,
            28.36072
          ],
          [
            85.720349,
            28.358517
          ],
          [
            85.72123,
            28.357489
          ],
          [
            85.721818,
            28.353377
          ],
          [
            85.72358,
            28.352936
          ],
          [
            85.725195,
            28.351761
          ],
          [
            85.725783,
            28.348824
          ],
          [
            85.727105,
            28.34618
          ],
          [
            85.727105,
            28.342656
          ],
          [
            85.73107,
            28.339719
          ],
          [
            85.731511,
            28.33825
          ],
          [
            85.731657,
            28.337075
          ],
          [
            85.731217,
            28.336047
          ],
          [
            85.730042,
            28.335019
          ],
          [
            85.7271198,
            28.3281045
          ],
          [
            85.7360737,
            28.3230277
          ],
          [
            85.737238,
            28.317983
          ],
          [
            85.736504,
            28.314752
          ],
          [
            85.737385,
            28.309759
          ],
          [
            85.735035,
            28.30271
          ],
          [
            85.735035,
            28.301388
          ],
          [
            85.7362805,
            28.2990357
          ],
          [
            85.7337822,
            28.2956653
          ],
          [
            85.7331709,
            28.2941763
          ],
          [
            85.732979,
            28.291549
          ],
          [
            85.735035,
            28.29052
          ],
          [
            85.735623,
            28.289639
          ],
          [
            85.735769,
            28.287436
          ],
          [
            85.737385,
            28.285087
          ],
          [
            85.738854,
            28.27789
          ],
          [
            85.741644,
            28.274219
          ],
          [
            85.741644,
            28.266876
          ],
          [
            85.742966,
            28.257036
          ],
          [
            85.747518,
            28.251749
          ],
          [
            85.748253,
            28.249253
          ],
          [
            85.747812,
            28.244847
          ],
          [
            85.750309,
            28.236476
          ],
          [
            85.755302,
            28.234126
          ],
          [
            85.756183,
            28.22928
          ],
          [
            85.757211,
            28.228252
          ],
          [
            85.75912,
            28.227371
          ],
          [
            85.762058,
            28.22693
          ],
          [
            85.767051,
            28.221937
          ],
          [
            85.771603,
            28.219734
          ],
          [
            85.775569,
            28.215769
          ],
          [
            85.775716,
            28.214741
          ],
          [
            85.774394,
            28.213272
          ],
          [
            85.7741,
            28.21195
          ],
          [
            85.775716,
            28.210775
          ],
          [
            85.776156,
            28.209307
          ],
          [
            85.77689,
            28.208719
          ],
          [
            85.781737,
            28.208572
          ],
          [
            85.782618,
            28.207985
          ],
          [
            85.782618,
            28.20681
          ],
          [
            85.783206,
            28.205929
          ],
          [
            85.800388,
            28.197411
          ],
          [
            85.800001,
            28.1874682
          ],
          [
            85.794497,
            28.185863
          ],
          [
            85.7915356,
            28.1843113
          ],
          [
            85.7878193,
            28.1814396
          ],
          [
            85.7820967,
            28.1794937
          ],
          [
            85.7801704,
            28.1776939
          ],
          [
            85.7794194,
            28.1751199
          ],
          [
            85.7740688,
            28.1751174
          ],
          [
            85.7718527,
            28.1740906
          ],
          [
            85.7687362,
            28.1744632
          ],
          [
            85.7651199,
            28.1763475
          ],
          [
            85.7518304,
            28.1750493
          ],
          [
            85.7427338,
            28.1719634
          ],
          [
            85.7285183,
            28.1700598
          ],
          [
            85.7240007,
            28.1716524
          ],
          [
            85.7220333,
            28.173455
          ],
          [
            85.7177662,
            28.1727958
          ],
          [
            85.7127539,
            28.1685644
          ],
          [
            85.7135758,
            28.1631737
          ],
          [
            85.7117789,
            28.1620306
          ],
          [
            85.7020875,
            28.1627247
          ],
          [
            85.6978528,
            28.1585555
          ],
          [
            85.6941978,
            28.1580868
          ],
          [
            85.6912849,
            28.1566848
          ],
          [
            85.6854463,
            28.1560742
          ],
          [
            85.6825761,
            28.1569992
          ],
          [
            85.6801876,
            28.1587135
          ],
          [
            85.6659902,
            28.1541
          ],
          [
            85.6607695,
            28.1545281
          ],
          [
            85.6518507,
            28.151806
          ],
          [
            85.6511293,
            28.1510242
          ],
          [
            85.6499701,
            28.147709
          ],
          [
            85.6479379,
            28.1461673
          ],
          [
            85.6454374,
            28.1460448
          ],
          [
            85.6411974,
            28.1443959
          ],
          [
            85.636149,
            28.1403313
          ],
          [
            85.6343656,
            28.133071
          ],
          [
            85.6295964,
            28.1301947
          ],
          [
            85.6228286,
            28.1298096
          ],
          [
            85.6157761,
            28.1326933
          ],
          [
            85.6143969,
            28.137934
          ],
          [
            85.616082,
            28.1441916
          ],
          [
            85.6150125,
            28.1483255
          ],
          [
            85.6008699,
            28.1584631
          ],
          [
            85.5934885,
            28.155718
          ],
          [
            85.5883263,
            28.1545851
          ],
          [
            85.5858802,
            28.1531979
          ],
          [
            85.5805419,
            28.1568483
          ],
          [
            85.5765287,
            28.1572004
          ],
          [
            85.5730387,
            28.1602208
          ],
          [
            85.5693411,
            28.1620334
          ],
          [
            85.5670067,
            28.1619996
          ],
          [
            85.5585202,
            28.1669144
          ],
          [
            85.5483635,
            28.168581
          ],
          [
            85.5399699,
            28.1677152
          ],
          [
            85.5366359,
            28.1683771
          ],
          [
            85.5331064,
            28.1674401
          ],
          [
            85.5314867,
            28.1622071
          ],
          [
            85.527547,
            28.1579479
          ],
          [
            85.5206838,
            28.1555179
          ],
          [
            85.5050748,
            28.1516742
          ],
          [
            85.500815,
            28.1487172
          ],
          [
            85.4939537,
            28.1427106
          ],
          [
            85.4903979,
            28.1388579
          ],
          [
            85.4909696,
            28.1355229
          ],
          [
            85.4928791,
            28.1334448
          ],
          [
            85.4937636,
            28.128223
          ],
          [
            85.4971321,
            28.1189203
          ],
          [
            85.4907589,
            28.1128912
          ],
          [
            85.4887526,
            28.1119474
          ],
          [
            85.4886026,
            28.1043922
          ],
          [
            85.4845637,
            28.1061849
          ],
          [
            85.4826722,
            28.1055082
          ],
          [
            85.4755407,
            28.1059961
          ],
          [
            85.4722838,
            28.1045661
          ],
          [
            85.4644288,
            28.0984203
          ],
          [
            85.4621654,
            28.0972521
          ],
          [
            85.4592787,
            28.0937455
          ],
          [
            85.4542443,
            28.091536
          ],
          [
            85.4440683,
            28.090361
          ],
          [
            85.4440909,
            28.0842817
          ],
          [
            85.4419313,
            28.0822407
          ],
          [
            85.4393383,
            28.0829991
          ],
          [
            85.4319455,
            28.0806414
          ],
          [
            85.4265967,
            28.0713929
          ],
          [
            85.4288059,
            28.0670492
          ],
          [
            85.426433,
            28.0618494
          ],
          [
            85.4198048,
            28.0592003
          ],
          [
            85.4142764,
            28.0630822
          ],
          [
            85.4048542,
            28.0561839
          ],
          [
            85.4050327,
            28.0516138
          ],
          [
            85.4027113,
            28.0451579
          ],
          [
            85.4041231,
            28.040068
          ],
          [
            85.4035735,
            28.0391449
          ],
          [
            85.4016638,
            28.0390123
          ],
          [
            85.4000072,
            28.0373067
          ],
          [
            85.3970289,
            28.0370805
          ],
          [
            85.3956344,
            28.038287
          ],
          [
            85.3967151,
            28.0395388
          ],
          [
            85.3965033,
            28.0423623
          ],
          [
            85.3877174,
            28.0515709
          ],
          [
            85.3866108,
            28.0548077
          ],
          [
            85.3836153,
            28.0587508
          ],
          [
            85.3807872,
            28.0577584
          ],
          [
            85.378448,
            28.0578213
          ],
          [
            85.3778059,
            28.0592177
          ],
          [
            85.3715473,
            28.062259
          ],
          [
            85.3695977,
            28.0660292
          ],
          [
            85.3579679,
            28.0703125
          ],
          [
            85.3540169,
            28.0685358
          ],
          [
            85.3457504,
            28.0686018
          ],
          [
            85.3431538,
            28.0693752
          ],
          [
            85.3407061,
            28.0689666
          ],
          [
            85.3383853,
            28.0693479
          ],
          [
            85.3312659,
            28.0728061
          ],
          [
            85.3284006,
            28.0732849
          ],
          [
            85.3191012,
            28.0707174
          ],
          [
            85.3158491,
            28.0672269
          ],
          [
            85.3121762,
            28.0669274
          ],
          [
            85.3089037,
            28.0650689
          ],
          [
            85.3046025,
            28.0651146
          ],
          [
            85.3010834,
            28.0623453
          ],
          [
            85.2997955,
            28.062622
          ],
          [
            85.2977797,
            28.0621887
          ],
          [
            85.2947951,
            28.0593965
          ],
          [
            85.294513,
            28.0581417
          ],
          [
            85.2918621,
            28.0557593
          ],
          [
            85.2880645,
            28.0558071
          ],
          [
            85.2744924,
            28.060266
          ],
          [
            85.2698042,
            28.0604953
          ],
          [
            85.2639359,
            28.0582599
          ],
          [
            85.25911,
            28.0554132
          ],
          [
            85.2526583,
            28.0532025
          ],
          [
            85.2493734,
            28.0564351
          ],
          [
            85.2443396,
            28.0662367
          ],
          [
            85.2416928,
            28.0704073
          ],
          [
            85.2379381,
            28.0749861
          ],
          [
            85.2374183,
            28.076922
          ],
          [
            85.23601,
            28.0779914
          ],
          [
            85.233586,
            28.0810714
          ],
          [
            85.2306328,
            28.0826302
          ],
          [
            85.2303682,
            28.0833983
          ],
          [
            85.2283721,
            28.0850991
          ]
        ]
      }
    },
    {
      "type": "Feature",
      "properties": {
        "name": "Kalika Rural Municipality",
        "district": "Rasuwa",
        "population": 9566,
        "zone": "South/Trishuli"
      },
      "geometry": {
        "type": "LineString",
        "coordinates": [
          [
            85.1935991,
            28.0304938
          ],
          [
            85.1945739,
            28.0330229
          ],
          [
            85.1936348,
            28.0383357
          ],
          [
            85.1941612,
            28.0404143
          ],
          [
            85.2009442,
            28.0453521
          ],
          [
            85.202507,
            28.0482209
          ],
          [
            85.2028815,
            28.049988
          ],
          [
            85.2067993,
            28.0524496
          ],
          [
            85.2081263,
            28.0545193
          ],
          [
            85.2086501,
            28.0571795
          ],
          [
            85.2074928,
            28.0623239
          ],
          [
            85.2064215,
            28.064771
          ],
          [
            85.2049302,
            28.0666636
          ],
          [
            85.2051687,
            28.0688097
          ],
          [
            85.2080307,
            28.0704219
          ],
          [
            85.2084321,
            28.0728709
          ],
          [
            85.2098538,
            28.074786
          ],
          [
            85.2111838,
            28.074949
          ],
          [
            85.2156441,
            28.0774556
          ],
          [
            85.2168208,
            28.0789819
          ],
          [
            85.2216026,
            28.0823249
          ],
          [
            85.2251588,
            28.0841495
          ],
          [
            85.2287656,
            28.0848726
          ],
          [
            85.2306328,
            28.0826302
          ],
          [
            85.233586,
            28.0810714
          ],
          [
            85.23601,
            28.0779914
          ],
          [
            85.2374183,
            28.076922
          ],
          [
            85.2379381,
            28.0749861
          ],
          [
            85.2416928,
            28.0704073
          ],
          [
            85.2443396,
            28.0662367
          ],
          [
            85.2493734,
            28.0564351
          ],
          [
            85.2526583,
            28.0532025
          ],
          [
            85.2501309,
            28.0518046
          ],
          [
            85.2482757,
            28.0476092
          ],
          [
            85.2468844,
            28.046151
          ],
          [
            85.2460437,
            28.0443602
          ],
          [
            85.2458378,
            28.0413758
          ],
          [
            85.2431413,
            28.0401038
          ],
          [
            85.241393,
            28.0386627
          ],
          [
            85.2379311,
            28.0385891
          ],
          [
            85.235655,
            28.0344085
          ],
          [
            85.2336857,
            28.0271152
          ],
          [
            85.2334288,
            28.0245454
          ],
          [
            85.2317592,
            28.021711
          ],
          [
            85.2312026,
            28.0196324
          ],
          [
            85.2339319,
            28.016742
          ],
          [
            85.2337619,
            28.0135133
          ],
          [
            85.2341904,
            28.0127905
          ],
          [
            85.2353722,
            28.0123403
          ],
          [
            85.2370191,
            28.0102139
          ],
          [
            85.2390373,
            28.0004199
          ],
          [
            85.236751,
            28.0002699
          ],
          [
            85.2352362,
            27.9989075
          ],
          [
            85.2353424,
            27.9977012
          ],
          [
            85.2365959,
            27.9962366
          ],
          [
            85.236713,
            27.9952634
          ],
          [
            85.2350451,
            27.99597
          ],
          [
            85.2341957,
            27.9953012
          ],
          [
            85.2321925,
            27.9956325
          ],
          [
            85.2316545,
            27.9922073
          ],
          [
            85.2293399,
            27.9907698
          ],
          [
            85.2287736,
            27.987582
          ],
          [
            85.2277402,
            27.9877633
          ],
          [
            85.226459,
            27.9861631
          ],
          [
            85.2313289,
            27.9827752
          ],
          [
            85.234493,
            27.9819376
          ],
          [
            85.234585,
            27.9808812
          ],
          [
            85.235491,
            27.980875
          ],
          [
            85.2366731,
            27.9815563
          ],
          [
            85.2369138,
            27.9827877
          ],
          [
            85.2356751,
            27.9861506
          ],
          [
            85.2370341,
            27.9876758
          ],
          [
            85.2417766,
            27.9880258
          ],
          [
            85.2461299,
            27.987482
          ],
          [
            85.2480269,
            27.9855756
          ],
          [
            85.246505,
            27.9837941
          ],
          [
            85.2469014,
            27.9831128
          ],
          [
            85.2491806,
            27.9836566
          ],
          [
            85.2497186,
            27.9816376
          ],
          [
            85.2493434,
            27.9804374
          ],
          [
            85.2479419,
            27.9804436
          ],
          [
            85.2456485,
            27.9780557
          ],
          [
            85.2454008,
            27.9747801
          ],
          [
            85.244,
            27.9726617
          ],
          [
            85.2425103,
            27.97331
          ],
          [
            85.2401065,
            27.9731384
          ],
          [
            85.2378755,
            27.9746892
          ],
          [
            85.2368391,
            27.9746511
          ],
          [
            85.2344569,
            27.9728015
          ],
          [
            85.233399,
            27.9727761
          ],
          [
            85.2319452,
            27.9739265
          ],
          [
            85.2289153,
            27.9738375
          ],
          [
            85.2261445,
            27.9749053
          ],
          [
            85.2222582,
            27.97406
          ],
          [
            85.2213413,
            27.9755454
          ],
          [
            85.2191418,
            27.9758201
          ],
          [
            85.2167386,
            27.9750716
          ],
          [
            85.2155866,
            27.9736087
          ],
          [
            85.2130461,
            27.9724456
          ],
          [
            85.2109015,
            27.9731193
          ],
          [
            85.2082629,
            27.9750573
          ],
          [
            85.2069268,
            27.9754164
          ],
          [
            85.1973929,
            27.9755155
          ],
          [
            85.1980454,
            27.9778773
          ],
          [
            85.1977466,
            27.9837335
          ],
          [
            85.1967659,
            27.9839232
          ],
          [
            85.1961353,
            27.9829403
          ],
          [
            85.1958319,
            27.984814
          ],
          [
            85.1977185,
            27.9934904
          ],
          [
            85.1923387,
            27.9932348
          ],
          [
            85.192236,
            27.9949832
          ],
          [
            85.1933848,
            27.9970697
          ],
          [
            85.1934315,
            27.9997664
          ],
          [
            85.1959253,
            27.9999231
          ],
          [
            85.19765,
            28.0014468
          ],
          [
            85.2002123,
            28.0027929
          ],
          [
            85.2033692,
            28.0035928
          ],
          [
            85.2076656,
            28.0039309
          ],
          [
            85.2078431,
            28.0052833
          ],
          [
            85.2069651,
            28.0075098
          ],
          [
            85.2042752,
            28.0123007
          ],
          [
            85.2040511,
            28.0136448
          ],
          [
            85.2047889,
            28.014189
          ],
          [
            85.2104396,
            28.0142467
          ],
          [
            85.2131576,
            28.0123749
          ],
          [
            85.2158475,
            28.0090518
          ],
          [
            85.2191725,
            28.0126141
          ],
          [
            85.2189951,
            28.0156649
          ],
          [
            85.2230953,
            28.0154093
          ],
          [
            85.2250474,
            28.0163988
          ],
          [
            85.2272049,
            28.0162586
          ],
          [
            85.2281716,
            28.0171498
          ],
          [
            85.2242325,
            28.0183755
          ],
          [
            85.2172948,
            28.0185133
          ],
          [
            85.2108541,
            28.0226763
          ],
          [
            85.2049747,
            28.027227
          ],
          [
            85.1997756,
            28.0288171
          ],
          [
            85.1992958,
            28.0297348
          ],
          [
            85.1935991,
            28.0304938
          ]
        ]
      }
    },
    {
      "type": "Feature",
      "properties": {
        "name": "Uttargaya Rural Municipality",
        "district": "Rasuwa",
        "population": 8555,
        "zone": "South-West/Betrawati"
      },
      "geometry": {
        "type": "LineString",
        "coordinates": [
          [
            85.1194747,
            28.1050798
          ],
          [
            85.126329,
            28.1079048
          ],
          [
            85.1342259,
            28.109668
          ],
          [
            85.1431306,
            28.1137481
          ],
          [
            85.1501892,
            28.1175751
          ],
          [
            85.1610859,
            28.1244954
          ],
          [
            85.1605077,
            28.1298425
          ],
          [
            85.1579541,
            28.1317514
          ],
          [
            85.1546924,
            28.1386712
          ],
          [
            85.1681002,
            28.149623
          ],
          [
            85.1696978,
            28.1542883
          ],
          [
            85.1728527,
            28.1579429
          ],
          [
            85.1728204,
            28.1622411
          ],
          [
            85.1814818,
            28.1673761
          ],
          [
            85.1871641,
            28.1683471
          ],
          [
            85.1932938,
            28.1678223
          ],
          [
            85.1958497,
            28.1684588
          ],
          [
            85.1978588,
            28.1633515
          ],
          [
            85.1986527,
            28.1646284
          ],
          [
            85.2034163,
            28.1665485
          ],
          [
            85.2117741,
            28.1683739
          ],
          [
            85.217278,
            28.1648649
          ],
          [
            85.2190161,
            28.1605612
          ],
          [
            85.2194774,
            28.1560019
          ],
          [
            85.2205975,
            28.1536861
          ],
          [
            85.2234921,
            28.1507468
          ],
          [
            85.22746,
            28.1452121
          ],
          [
            85.2280617,
            28.142545
          ],
          [
            85.2278341,
            28.1397631
          ],
          [
            85.2299978,
            28.1386087
          ],
          [
            85.2290537,
            28.1374257
          ],
          [
            85.2275251,
            28.1335108
          ],
          [
            85.2245329,
            28.1297535
          ],
          [
            85.2206138,
            28.1276597
          ],
          [
            85.2195893,
            28.1204171
          ],
          [
            85.2201747,
            28.1142928
          ],
          [
            85.2217033,
            28.1115675
          ],
          [
            85.2278341,
            28.1100328
          ],
          [
            85.2360788,
            28.102416
          ],
          [
            85.2387783,
            28.0996761
          ],
          [
            85.2400467,
            28.0965345
          ],
          [
            85.2428402,
            28.0926072
          ],
          [
            85.2414105,
            28.0916712
          ],
          [
            85.237723,
            28.0913534
          ],
          [
            85.2318944,
            28.0894606
          ],
          [
            85.2302603,
            28.0878755
          ],
          [
            85.2294416,
            28.0877716
          ],
          [
            85.2289391,
            28.0855527
          ],
          [
            85.2283721,
            28.0850991
          ],
          [
            85.2251588,
            28.0841495
          ],
          [
            85.2216026,
            28.0823249
          ],
          [
            85.2168208,
            28.0789819
          ],
          [
            85.2156441,
            28.0774556
          ],
          [
            85.209291,
            28.0741829
          ],
          [
            85.2084321,
            28.0728709
          ],
          [
            85.2080307,
            28.0704219
          ],
          [
            85.2051687,
            28.0688097
          ],
          [
            85.2049408,
            28.0681106
          ],
          [
            85.2049302,
            28.0666636
          ],
          [
            85.2064215,
            28.064771
          ],
          [
            85.2074928,
            28.0623239
          ],
          [
            85.2086501,
            28.0571795
          ],
          [
            85.2081263,
            28.0545193
          ],
          [
            85.2067993,
            28.0524496
          ],
          [
            85.2028815,
            28.049988
          ],
          [
            85.202507,
            28.0482209
          ],
          [
            85.2009442,
            28.0453521
          ],
          [
            85.1950889,
            28.0412048
          ],
          [
            85.1937422,
            28.0397105
          ],
          [
            85.1939701,
            28.0349209
          ],
          [
            85.1945739,
            28.0330229
          ],
          [
            85.1935991,
            28.0304938
          ],
          [
            85.1992958,
            28.0297348
          ],
          [
            85.1997756,
            28.0288171
          ],
          [
            85.2049747,
            28.027227
          ],
          [
            85.2108541,
            28.0226763
          ],
          [
            85.2172948,
            28.0185133
          ],
          [
            85.2242325,
            28.0183755
          ],
          [
            85.2281716,
            28.0171498
          ],
          [
            85.2272049,
            28.0162586
          ],
          [
            85.2250474,
            28.0163988
          ],
          [
            85.2230953,
            28.0154093
          ],
          [
            85.2189951,
            28.0156649
          ],
          [
            85.2191725,
            28.0126141
          ],
          [
            85.2158475,
            28.0090518
          ],
          [
            85.2131576,
            28.0123749
          ],
          [
            85.2104396,
            28.0142467
          ],
          [
            85.2047889,
            28.014189
          ],
          [
            85.2040511,
            28.0136448
          ],
          [
            85.2042752,
            28.0123007
          ],
          [
            85.2069651,
            28.0075098
          ],
          [
            85.2078431,
            28.0052833
          ],
          [
            85.2076656,
            28.0039309
          ],
          [
            85.2033692,
            28.0035928
          ],
          [
            85.2002123,
            28.0027929
          ],
          [
            85.19765,
            28.0014468
          ],
          [
            85.1959253,
            27.9999231
          ],
          [
            85.1934315,
            27.9997664
          ],
          [
            85.1933848,
            27.9970697
          ],
          [
            85.192236,
            27.9949832
          ],
          [
            85.1923387,
            27.9932348
          ],
          [
            85.1977185,
            27.9934904
          ],
          [
            85.1958319,
            27.984814
          ],
          [
            85.1961353,
            27.9829403
          ],
          [
            85.1967659,
            27.9839232
          ],
          [
            85.1977466,
            27.9837335
          ],
          [
            85.1980454,
            27.9778773
          ],
          [
            85.1973929,
            27.9755155
          ],
          [
            85.1946148,
            27.9760176
          ],
          [
            85.191441,
            27.9754901
          ],
          [
            85.1894906,
            27.9765515
          ],
          [
            85.1886143,
            27.9765391
          ],
          [
            85.1845253,
            27.9736809
          ],
          [
            85.1841731,
            27.9728334
          ],
          [
            85.1825357,
            27.9749652
          ],
          [
            85.1802678,
            27.9817606
          ],
          [
            85.1801505,
            27.9881798
          ],
          [
            85.1828312,
            27.990253
          ],
          [
            85.1820072,
            27.9930334
          ],
          [
            85.1862299,
            27.9967729
          ],
          [
            85.1839755,
            28.0006435
          ],
          [
            85.1845181,
            28.0037781
          ],
          [
            85.1832004,
            28.0072666
          ],
          [
            85.1838998,
            28.0119052
          ],
          [
            85.1858715,
            28.0152826
          ],
          [
            85.187078,
            28.0161139
          ],
          [
            85.1870915,
            28.0190147
          ],
          [
            85.181934,
            28.0200091
          ],
          [
            85.1784152,
            28.0215216
          ],
          [
            85.1735921,
            28.0207351
          ],
          [
            85.1690975,
            28.0217638
          ],
          [
            85.1663248,
            28.0244778
          ],
          [
            85.1616224,
            28.023727
          ],
          [
            85.1562359,
            28.0266713
          ],
          [
            85.1440717,
            28.0276646
          ],
          [
            85.1400502,
            28.028989
          ],
          [
            85.133721,
            28.0372875
          ],
          [
            85.1345273,
            28.0418613
          ],
          [
            85.1430987,
            28.0544107
          ],
          [
            85.1584279,
            28.0721646
          ],
          [
            85.1666817,
            28.0772098
          ],
          [
            85.1699525,
            28.0830273
          ],
          [
            85.1553732,
            28.0884492
          ],
          [
            85.1444325,
            28.0867587
          ],
          [
            85.1356456,
            28.0840314
          ],
          [
            85.130407,
            28.0852858
          ],
          [
            85.1222991,
            28.0912138
          ],
          [
            85.1231508,
            28.0941866
          ],
          [
            85.1194747,
            28.1050798
          ]
        ]
      }
    },
    {
      "type": "Feature",
      "properties": {
        "name": "Naukunda Rural Municipality",
        "district": "Rasuwa",
        "population": 12357,
        "zone": "South-East"
      },
      "geometry": {
        "type": "LineString",
        "coordinates": [
          [
            85.2287736,
            27.987582
          ],
          [
            85.2293399,
            27.9907698
          ],
          [
            85.2316545,
            27.9922073
          ],
          [
            85.2321925,
            27.9956325
          ],
          [
            85.2341957,
            27.9953012
          ],
          [
            85.2350451,
            27.99597
          ],
          [
            85.236713,
            27.9952634
          ],
          [
            85.2365959,
            27.9962366
          ],
          [
            85.2353424,
            27.9977012
          ],
          [
            85.2352362,
            27.9989075
          ],
          [
            85.236751,
            28.0002699
          ],
          [
            85.2390373,
            28.0004199
          ],
          [
            85.2370191,
            28.0102139
          ],
          [
            85.2353722,
            28.0123403
          ],
          [
            85.2341904,
            28.0127905
          ],
          [
            85.2337619,
            28.0135133
          ],
          [
            85.2339319,
            28.016742
          ],
          [
            85.2312026,
            28.0196324
          ],
          [
            85.2317592,
            28.021711
          ],
          [
            85.2334288,
            28.0245454
          ],
          [
            85.2336857,
            28.0271152
          ],
          [
            85.235655,
            28.0344085
          ],
          [
            85.2379311,
            28.0385891
          ],
          [
            85.241393,
            28.0386627
          ],
          [
            85.2431413,
            28.0401038
          ],
          [
            85.2458378,
            28.0413758
          ],
          [
            85.2460437,
            28.0443602
          ],
          [
            85.2468844,
            28.046151
          ],
          [
            85.2482757,
            28.0476092
          ],
          [
            85.2501309,
            28.0518046
          ],
          [
            85.2526583,
            28.0532025
          ],
          [
            85.25911,
            28.0554132
          ],
          [
            85.2639359,
            28.0582599
          ],
          [
            85.2698042,
            28.0604953
          ],
          [
            85.2744924,
            28.060266
          ],
          [
            85.2880645,
            28.0558071
          ],
          [
            85.2918621,
            28.0557593
          ],
          [
            85.294513,
            28.0581417
          ],
          [
            85.2947951,
            28.0593965
          ],
          [
            85.2977797,
            28.0621887
          ],
          [
            85.2997955,
            28.062622
          ],
          [
            85.3010834,
            28.0623453
          ],
          [
            85.3046025,
            28.0651146
          ],
          [
            85.3089037,
            28.0650689
          ],
          [
            85.3121762,
            28.0669274
          ],
          [
            85.3158491,
            28.0672269
          ],
          [
            85.3191012,
            28.0707174
          ],
          [
            85.3242001,
            28.0718382
          ],
          [
            85.3254162,
            28.0726805
          ],
          [
            85.3284006,
            28.0732849
          ],
          [
            85.3312659,
            28.0728061
          ],
          [
            85.3383853,
            28.0693479
          ],
          [
            85.3407061,
            28.0689666
          ],
          [
            85.3431538,
            28.0693752
          ],
          [
            85.3457504,
            28.0686018
          ],
          [
            85.3540169,
            28.0685358
          ],
          [
            85.3579679,
            28.0703125
          ],
          [
            85.3695977,
            28.0660292
          ],
          [
            85.3715473,
            28.062259
          ],
          [
            85.3778059,
            28.0592177
          ],
          [
            85.378448,
            28.0578213
          ],
          [
            85.3807872,
            28.0577584
          ],
          [
            85.3836153,
            28.0587508
          ],
          [
            85.3866108,
            28.0548077
          ],
          [
            85.3877174,
            28.0515709
          ],
          [
            85.3965033,
            28.0423623
          ],
          [
            85.3967151,
            28.0395388
          ],
          [
            85.3956344,
            28.038287
          ],
          [
            85.3931451,
            28.0377245
          ],
          [
            85.3913855,
            28.0351676
          ],
          [
            85.3908062,
            28.0316258
          ],
          [
            85.3814492,
            28.0261513
          ],
          [
            85.3763222,
            28.0224772
          ],
          [
            85.3716659,
            28.0226287
          ],
          [
            85.3693914,
            28.0188782
          ],
          [
            85.3566885,
            28.0120017
          ],
          [
            85.3519892,
            28.011585
          ],
          [
            85.3462386,
            28.011907
          ],
          [
            85.342017,
            28.0100503
          ],
          [
            85.3391361,
            28.0058827
          ],
          [
            85.3360036,
            28.0000052
          ],
          [
            85.332359,
            27.9899597
          ],
          [
            85.3270113,
            27.9873429
          ],
          [
            85.3241501,
            27.9875534
          ],
          [
            85.3215535,
            27.9894587
          ],
          [
            85.3152639,
            27.9891228
          ],
          [
            85.3090188,
            27.9879291
          ],
          [
            85.2985292,
            27.9832021
          ],
          [
            85.2933581,
            27.9828761
          ],
          [
            85.2901268,
            27.9833074
          ],
          [
            85.2829385,
            27.9757276
          ],
          [
            85.2808356,
            27.9728281
          ],
          [
            85.2799129,
            27.9699097
          ],
          [
            85.2799845,
            27.9683015
          ],
          [
            85.2785182,
            27.9677373
          ],
          [
            85.2785799,
            27.9670835
          ],
          [
            85.2763932,
            27.9649899
          ],
          [
            85.2710516,
            27.9672749
          ],
          [
            85.2685991,
            27.9667861
          ],
          [
            85.2667938,
            27.968027
          ],
          [
            85.265789,
            27.9681474
          ],
          [
            85.2641395,
            27.969947
          ],
          [
            85.2616253,
            27.9702873
          ],
          [
            85.2620592,
            27.9709301
          ],
          [
            85.2616505,
            27.9719755
          ],
          [
            85.260673,
            27.9715402
          ],
          [
            85.2595727,
            27.9721785
          ],
          [
            85.2587799,
            27.9710633
          ],
          [
            85.2573264,
            27.9711451
          ],
          [
            85.25522,
            27.9745367
          ],
          [
            85.2541693,
            27.9739392
          ],
          [
            85.2534064,
            27.9720705
          ],
          [
            85.2503473,
            27.9713119
          ],
          [
            85.2472027,
            27.9728651
          ],
          [
            85.244,
            27.9726617
          ],
          [
            85.2454008,
            27.9747801
          ],
          [
            85.2456485,
            27.9780557
          ],
          [
            85.2479419,
            27.9804436
          ],
          [
            85.2493434,
            27.9804374
          ],
          [
            85.2497186,
            27.9816376
          ],
          [
            85.2491806,
            27.9836566
          ],
          [
            85.2469014,
            27.9831128
          ],
          [
            85.246505,
            27.9837941
          ],
          [
            85.2480269,
            27.9855756
          ],
          [
            85.2461299,
            27.987482
          ],
          [
            85.2417766,
            27.9880258
          ],
          [
            85.2370341,
            27.9876758
          ],
          [
            85.2356751,
            27.9861506
          ],
          [
            85.2369138,
            27.9827877
          ],
          [
            85.2366731,
            27.9815563
          ],
          [
            85.234585,
            27.9808812
          ],
          [
            85.234493,
            27.9819376
          ],
          [
            85.2313289,
            27.9827752
          ],
          [
            85.226459,
            27.9861631
          ],
          [
            85.2277402,
            27.9877633
          ],
          [
            85.2287736,
            27.987582
          ]
        ]
      }
    },
    {
      "type": "Feature",
      "properties": {
        "name": "Aamachhodingmo Rural Municipality",
        "district": "Rasuwa",
        "population": 6673,
        "zone": "North-West/Chilime"
      },
      "geometry": {
        "type": "LineString",
        "coordinates": [
          [
            85.1597179,
            28.3315522
          ],
          [
            85.1654105,
            28.3316853
          ],
          [
            85.1685977,
            28.3307955
          ],
          [
            85.1709209,
            28.3285326
          ],
          [
            85.1799733,
            28.3252258
          ],
          [
            85.1820471,
            28.3236854
          ],
          [
            85.1864568,
            28.3279627
          ],
          [
            85.1938845,
            28.332762
          ],
          [
            85.1954031,
            28.3360724
          ],
          [
            85.1964801,
            28.3372447
          ],
          [
            85.2000528,
            28.3397294
          ],
          [
            85.2032009,
            28.3401791
          ],
          [
            85.2073627,
            28.3374432
          ],
          [
            85.2105443,
            28.3362573
          ],
          [
            85.2137491,
            28.3332112
          ],
          [
            85.2161136,
            28.3317127
          ],
          [
            85.2214492,
            28.3294409
          ],
          [
            85.2259283,
            28.3257594
          ],
          [
            85.2288972,
            28.32477
          ],
          [
            85.2297421,
            28.3235149
          ],
          [
            85.2315436,
            28.3222549
          ],
          [
            85.2346867,
            28.3216946
          ],
          [
            85.240658,
            28.3186324
          ],
          [
            85.2445221,
            28.3131277
          ],
          [
            85.2469573,
            28.3034589
          ],
          [
            85.2529049,
            28.2983256
          ],
          [
            85.2540373,
            28.2965202
          ],
          [
            85.2547928,
            28.2932405
          ],
          [
            85.2575706,
            28.2950899
          ],
          [
            85.2600546,
            28.2951545
          ],
          [
            85.2615031,
            28.2962198
          ],
          [
            85.2631593,
            28.2961812
          ],
          [
            85.2660469,
            28.2977813
          ],
          [
            85.2685939,
            28.2981571
          ],
          [
            85.270264,
            28.2970717
          ],
          [
            85.2731785,
            28.2940098
          ],
          [
            85.2735356,
            28.2913711
          ],
          [
            85.2731474,
            28.290299
          ],
          [
            85.272049,
            28.2898777
          ],
          [
            85.2732681,
            28.2873832
          ],
          [
            85.2716259,
            28.2851692
          ],
          [
            85.2717006,
            28.283442
          ],
          [
            85.2730082,
            28.2822247
          ],
          [
            85.27355,
            28.2809087
          ],
          [
            85.276408,
            28.2783753
          ],
          [
            85.278799,
            28.2750358
          ],
          [
            85.2875973,
            28.2671554
          ],
          [
            85.2986185,
            28.2591757
          ],
          [
            85.3008601,
            28.2562634
          ],
          [
            85.3021117,
            28.252808
          ],
          [
            85.3029149,
            28.2475753
          ],
          [
            85.3040731,
            28.2436424
          ],
          [
            85.3091727,
            28.2371585
          ],
          [
            85.3095276,
            28.2353318
          ],
          [
            85.308687,
            28.2325175
          ],
          [
            85.3102001,
            28.2204533
          ],
          [
            85.3127592,
            28.2168651
          ],
          [
            85.3127779,
            28.2118775
          ],
          [
            85.3139734,
            28.2077952
          ],
          [
            85.317149,
            28.2083219
          ],
          [
            85.321296,
            28.2078116
          ],
          [
            85.3389299,
            28.1995805
          ],
          [
            85.34657,
            28.1984775
          ],
          [
            85.350415,
            28.1965449
          ],
          [
            85.3485733,
            28.1918933
          ],
          [
            85.3427186,
            28.1812149
          ],
          [
            85.3377628,
            28.1821725
          ],
          [
            85.3344798,
            28.1768954
          ],
          [
            85.3312611,
            28.1733393
          ],
          [
            85.3193092,
            28.1648554
          ],
          [
            85.3155327,
            28.1604004
          ],
          [
            85.3207576,
            28.1571938
          ],
          [
            85.3244054,
            28.1527763
          ],
          [
            85.324774,
            28.1513628
          ],
          [
            85.3227554,
            28.1507533
          ],
          [
            85.3192893,
            28.1481175
          ],
          [
            85.3178858,
            28.1478651
          ],
          [
            85.316305,
            28.1460437
          ],
          [
            85.3129621,
            28.1451057
          ],
          [
            85.3128869,
            28.1433188
          ],
          [
            85.3120848,
            28.1417867
          ],
          [
            85.3098749,
            28.1422681
          ],
          [
            85.3075203,
            28.1406605
          ],
          [
            85.3046923,
            28.1375475
          ],
          [
            85.3026116,
            28.1338612
          ],
          [
            85.3009506,
            28.132629
          ],
          [
            85.3004577,
            28.1297003
          ],
          [
            85.2987956,
            28.128339
          ],
          [
            85.297537,
            28.1265268
          ],
          [
            85.2948997,
            28.1253546
          ],
          [
            85.2931346,
            28.123259
          ],
          [
            85.2910989,
            28.1221403
          ],
          [
            85.2907568,
            28.12126
          ],
          [
            85.2889962,
            28.1203699
          ],
          [
            85.2876514,
            28.1188346
          ],
          [
            85.2827899,
            28.1164026
          ],
          [
            85.2809148,
            28.1130787
          ],
          [
            85.278421,
            28.1110712
          ],
          [
            85.2774212,
            28.1108268
          ],
          [
            85.2770582,
            28.1097119
          ],
          [
            85.2743947,
            28.1076544
          ],
          [
            85.2723506,
            28.1067812
          ],
          [
            85.2708758,
            28.1042636
          ],
          [
            85.2690535,
            28.103398
          ],
          [
            85.2688067,
            28.1026512
          ],
          [
            85.2669283,
            28.1024236
          ],
          [
            85.2610475,
            28.0958648
          ],
          [
            85.2549835,
            28.0945493
          ],
          [
            85.2538052,
            28.0935665
          ],
          [
            85.2500951,
            28.0923575
          ],
          [
            85.2469532,
            28.0920309
          ],
          [
            85.2428402,
            28.0926072
          ],
          [
            85.2400467,
            28.0965345
          ],
          [
            85.2387783,
            28.0996761
          ],
          [
            85.2304034,
            28.1077951
          ],
          [
            85.2278341,
            28.1100328
          ],
          [
            85.2217033,
            28.1115675
          ],
          [
            85.2201747,
            28.1142928
          ],
          [
            85.2195893,
            28.1204171
          ],
          [
            85.2201422,
            28.1249061
          ],
          [
            85.2206138,
            28.1276597
          ],
          [
            85.2245329,
            28.1297535
          ],
          [
            85.2275251,
            28.1335108
          ],
          [
            85.2290537,
            28.1374257
          ],
          [
            85.2299978,
            28.1386087
          ],
          [
            85.2278341,
            28.1397631
          ],
          [
            85.2280617,
            28.142545
          ],
          [
            85.22746,
            28.1452121
          ],
          [
            85.2234921,
            28.1507468
          ],
          [
            85.2205975,
            28.1536861
          ],
          [
            85.2194774,
            28.1560019
          ],
          [
            85.2190161,
            28.1605612
          ],
          [
            85.217278,
            28.1648649
          ],
          [
            85.2117741,
            28.1683739
          ],
          [
            85.2034163,
            28.1665485
          ],
          [
            85.1986527,
            28.1646284
          ],
          [
            85.1978588,
            28.1633515
          ],
          [
            85.1958497,
            28.1684588
          ],
          [
            85.1971146,
            28.1725837
          ],
          [
            85.1994568,
            28.1758656
          ],
          [
            85.2001584,
            28.1791127
          ],
          [
            85.1981428,
            28.1849667
          ],
          [
            85.2004888,
            28.1884615
          ],
          [
            85.2008224,
            28.1922587
          ],
          [
            85.2026319,
            28.1945145
          ],
          [
            85.2034414,
            28.1972319
          ],
          [
            85.2040247,
            28.20397
          ],
          [
            85.2001889,
            28.2116845
          ],
          [
            85.1935369,
            28.2169362
          ],
          [
            85.1873584,
            28.2198313
          ],
          [
            85.1876113,
            28.2272853
          ],
          [
            85.1942737,
            28.2459005
          ],
          [
            85.2017632,
            28.2510561
          ],
          [
            85.191648,
            28.2653075
          ],
          [
            85.1882313,
            28.2661872
          ],
          [
            85.185971,
            28.2679002
          ],
          [
            85.1857755,
            28.2718023
          ],
          [
            85.1835233,
            28.2778116
          ],
          [
            85.1806882,
            28.2786635
          ],
          [
            85.1791048,
            28.2820856
          ],
          [
            85.1788044,
            28.291042
          ],
          [
            85.1765298,
            28.2960678
          ],
          [
            85.1783967,
            28.302461
          ],
          [
            85.1740081,
            28.3103881
          ],
          [
            85.1615785,
            28.327848
          ],
          [
            85.1597179,
            28.3315522
          ]
        ]
      }
    },
    {
      "type": "Feature",
      "properties": {
        "name": "Helambu Rural Municipality",
        "district": "Sindhupalchowk",
        "population": 17490,
        "zone": "East"
      },
      "geometry": {
        "type": "LineString",
        "coordinates": [
          [
            85.4419313,
            28.0822407
          ],
          [
            85.4440909,
            28.0842817
          ],
          [
            85.4440683,
            28.090361
          ],
          [
            85.4542443,
            28.091536
          ],
          [
            85.4592787,
            28.0937455
          ],
          [
            85.4621654,
            28.0972521
          ],
          [
            85.4644288,
            28.0984203
          ],
          [
            85.4722838,
            28.1045661
          ],
          [
            85.4755407,
            28.1059961
          ],
          [
            85.4826722,
            28.1055082
          ],
          [
            85.4845637,
            28.1061849
          ],
          [
            85.4886026,
            28.1043922
          ],
          [
            85.4887526,
            28.1119474
          ],
          [
            85.4907589,
            28.1128912
          ],
          [
            85.4971321,
            28.1189203
          ],
          [
            85.4937636,
            28.128223
          ],
          [
            85.4928791,
            28.1334448
          ],
          [
            85.4909696,
            28.1355229
          ],
          [
            85.4903979,
            28.1388579
          ],
          [
            85.4939537,
            28.1427106
          ],
          [
            85.500815,
            28.1487172
          ],
          [
            85.5050748,
            28.1516742
          ],
          [
            85.5206838,
            28.1555179
          ],
          [
            85.527547,
            28.1579479
          ],
          [
            85.5310934,
            28.1551472
          ],
          [
            85.5363922,
            28.1523822
          ],
          [
            85.5401231,
            28.146995
          ],
          [
            85.550883,
            28.1456362
          ],
          [
            85.5563711,
            28.1419174
          ],
          [
            85.5588313,
            28.1353853
          ],
          [
            85.5615348,
            28.1312132
          ],
          [
            85.5619403,
            28.1293297
          ],
          [
            85.5636705,
            28.1259203
          ],
          [
            85.5647249,
            28.1197926
          ],
          [
            85.5660766,
            28.1156198
          ],
          [
            85.5645086,
            28.1122338
          ],
          [
            85.5638327,
            28.1066061
          ],
          [
            85.5618321,
            28.1051037
          ],
          [
            85.5608589,
            28.1035775
          ],
          [
            85.5604263,
            28.1003819
          ],
          [
            85.5626702,
            28.0964707
          ],
          [
            85.5629406,
            28.0913431
          ],
          [
            85.5619403,
            28.0880517
          ],
          [
            85.5656441,
            28.0846648
          ],
          [
            85.5669958,
            28.0824943
          ],
          [
            85.5664011,
            28.079298
          ],
          [
            85.5652926,
            28.0768412
          ],
          [
            85.5679691,
            28.0746705
          ],
          [
            85.5670229,
            28.0715933
          ],
          [
            85.5651304,
            28.0695179
          ],
          [
            85.5588313,
            28.0649376
          ],
          [
            85.5654831,
            28.059579
          ],
          [
            85.5699463,
            28.0543527
          ],
          [
            85.5657406,
            28.0445242
          ],
          [
            85.5655475,
            28.0413047
          ],
          [
            85.5644746,
            28.0391267
          ],
          [
            85.5610843,
            28.0360396
          ],
          [
            85.5620928,
            28.0332365
          ],
          [
            85.5637236,
            28.0307364
          ],
          [
            85.5648609,
            28.0264557
          ],
          [
            85.5675216,
            28.0234819
          ],
          [
            85.5704613,
            28.0189547
          ],
          [
            85.5697961,
            28.0113016
          ],
          [
            85.568616,
            28.0089146
          ],
          [
            85.5704184,
            28.0069254
          ],
          [
            85.5708261,
            28.0050309
          ],
          [
            85.5679079,
            28.0005408
          ],
          [
            85.5685301,
            27.9960695
          ],
          [
            85.5700751,
            27.9943264
          ],
          [
            85.5775209,
            27.9889453
          ],
          [
            85.5805893,
            27.985781
          ],
          [
            85.5818339,
            27.9836966
          ],
          [
            85.5837222,
            27.9797362
          ],
          [
            85.5839797,
            27.9746766
          ],
          [
            85.586061,
            27.9738996
          ],
          [
            85.5875416,
            27.9726489
          ],
          [
            85.5878206,
            27.9674562
          ],
          [
            85.5895372,
            27.9593446
          ],
          [
            85.6069394,
            27.9604249
          ],
          [
            85.6129904,
            27.9621306
          ],
          [
            85.6143852,
            27.957544
          ],
          [
            85.6149124,
            27.952042
          ],
          [
            85.6131956,
            27.9507882
          ],
          [
            85.609235,
            27.9500599
          ],
          [
            85.6087619,
            27.9486747
          ],
          [
            85.6091404,
            27.9462029
          ],
          [
            85.6125198,
            27.943743
          ],
          [
            85.6109112,
            27.9413786
          ],
          [
            85.6060403,
            27.9361086
          ],
          [
            85.6043129,
            27.935502
          ],
          [
            85.6028002,
            27.933938
          ],
          [
            85.5965116,
            27.9255072
          ],
          [
            85.5891031,
            27.917682
          ],
          [
            85.5838916,
            27.9103529
          ],
          [
            85.5821289,
            27.9094875
          ],
          [
            85.5818905,
            27.907674
          ],
          [
            85.5845814,
            27.9051004
          ],
          [
            85.5831934,
            27.8999981
          ],
          [
            85.5836311,
            27.8970339
          ],
          [
            85.5814394,
            27.8945326
          ],
          [
            85.5762487,
            27.892633
          ],
          [
            85.5744373,
            27.8908409
          ],
          [
            85.573437,
            27.8864323
          ],
          [
            85.5697014,
            27.8844578
          ],
          [
            85.5687194,
            27.8844967
          ],
          [
            85.5677326,
            27.883278
          ],
          [
            85.5666512,
            27.8797652
          ],
          [
            85.5617579,
            27.8767302
          ],
          [
            85.5588922,
            27.8758102
          ],
          [
            85.5578784,
            27.8743643
          ],
          [
            85.5562698,
            27.8741014
          ],
          [
            85.5544622,
            27.8727186
          ],
          [
            85.55202,
            27.8722287
          ],
          [
            85.5514023,
            27.8711161
          ],
          [
            85.5500513,
            27.8703556
          ],
          [
            85.5477304,
            27.8712335
          ],
          [
            85.5410737,
            27.8712386
          ],
          [
            85.5413038,
            27.8693198
          ],
          [
            85.5402404,
            27.8688919
          ],
          [
            85.5397644,
            27.8679798
          ],
          [
            85.5377614,
            27.8681236
          ],
          [
            85.536241,
            27.8676404
          ],
          [
            85.5342106,
            27.8681792
          ],
          [
            85.5334814,
            27.8679264
          ],
          [
            85.5305502,
            27.8693474
          ],
          [
            85.5257052,
            27.8697667
          ],
          [
            85.5220422,
            27.8676578
          ],
          [
            85.5202186,
            27.8680431
          ],
          [
            85.5116853,
            27.862483
          ],
          [
            85.5086973,
            27.8628126
          ],
          [
            85.5053085,
            27.8609186
          ],
          [
            85.5034465,
            27.8607402
          ],
          [
            85.5017713,
            27.8589119
          ],
          [
            85.4994188,
            27.8586522
          ],
          [
            85.4952762,
            27.8591715
          ],
          [
            85.4944505,
            27.8587984
          ],
          [
            85.4938182,
            27.8576457
          ],
          [
            85.4918818,
            27.8575818
          ],
          [
            85.4902305,
            27.856722
          ],
          [
            85.4884517,
            27.8567568
          ],
          [
            85.4851941,
            27.8558784
          ],
          [
            85.4828849,
            27.8565253
          ],
          [
            85.4814032,
            27.8584074
          ],
          [
            85.4792913,
            27.8657701
          ],
          [
            85.4787293,
            27.8695642
          ],
          [
            85.4788826,
            27.8716117
          ],
          [
            85.4826805,
            27.8776488
          ],
          [
            85.4783035,
            27.8817134
          ],
          [
            85.4777074,
            27.8841069
          ],
          [
            85.4792062,
            27.8856575
          ],
          [
            85.4782184,
            27.8879907
          ],
          [
            85.4759261,
            27.8891944
          ],
          [
            85.4764684,
            27.894388
          ],
          [
            85.4788868,
            27.8982864
          ],
          [
            85.4793544,
            27.9046374
          ],
          [
            85.4831445,
            27.9108388
          ],
          [
            85.483787,
            27.9141648
          ],
          [
            85.4849758,
            27.916536
          ],
          [
            85.4877311,
            27.9200672
          ],
          [
            85.4871258,
            27.9265938
          ],
          [
            85.4854626,
            27.9298779
          ],
          [
            85.4844227,
            27.9309334
          ],
          [
            85.4818719,
            27.939824
          ],
          [
            85.4822049,
            27.9419635
          ],
          [
            85.4819194,
            27.9438638
          ],
          [
            85.4830108,
            27.9454563
          ],
          [
            85.4820357,
            27.9478126
          ],
          [
            85.4823676,
            27.9537194
          ],
          [
            85.4813289,
            27.9546878
          ],
          [
            85.4812459,
            27.9566868
          ],
          [
            85.4786271,
            27.9595333
          ],
          [
            85.4806656,
            27.9636224
          ],
          [
            85.4809588,
            27.9658406
          ],
          [
            85.4859852,
            27.9710933
          ],
          [
            85.4907555,
            27.9711882
          ],
          [
            85.4930218,
            27.9751913
          ],
          [
            85.4880035,
            27.9929892
          ],
          [
            85.497442,
            28.0235178
          ],
          [
            85.4958428,
            28.035922
          ],
          [
            85.4834802,
            28.0442571
          ],
          [
            85.4807446,
            28.0478656
          ],
          [
            85.4819071,
            28.0505785
          ],
          [
            85.4805613,
            28.0541573
          ],
          [
            85.47707,
            28.0564807
          ],
          [
            85.4723786,
            28.0623871
          ],
          [
            85.4649724,
            28.0683153
          ],
          [
            85.4485009,
            28.0748144
          ],
          [
            85.4434305,
            28.0785311
          ],
          [
            85.4419313,
            28.0822407
          ]
        ]
      }
    },
    {
      "type": "Feature",
      "properties": {
        "name": "Kispang Rural Municipality",
        "district": "Nuwakot",
        "population": 14861,
        "zone": "South-West"
      },
      "geometry": {
        "type": "LineString",
        "coordinates": [
          [
            85.059459,
            28.0064292
          ],
          [
            85.0586074,
            28.0079926
          ],
          [
            85.0583776,
            28.0105107
          ],
          [
            85.0612838,
            28.0173607
          ],
          [
            85.0609324,
            28.0217998
          ],
          [
            85.0616353,
            28.0227424
          ],
          [
            85.0617434,
            28.0246159
          ],
          [
            85.0687049,
            28.0305581
          ],
          [
            85.0726521,
            28.0370727
          ],
          [
            85.0732874,
            28.0439686
          ],
          [
            85.0741525,
            28.0458178
          ],
          [
            85.074896,
            28.0501722
          ],
          [
            85.0783024,
            28.0551349
          ],
          [
            85.0799109,
            28.0594531
          ],
          [
            85.080357,
            28.0629243
          ],
          [
            85.0797893,
            28.0641171
          ],
          [
            85.0808031,
            28.0655962
          ],
          [
            85.0808001,
            28.0666529
          ],
          [
            85.0910725,
            28.0729108
          ],
          [
            85.099418,
            28.0731535
          ],
          [
            85.1026434,
            28.0761838
          ],
          [
            85.1155889,
            28.0771798
          ],
          [
            85.1166448,
            28.0809664
          ],
          [
            85.1201135,
            28.0847257
          ],
          [
            85.1204938,
            28.0869467
          ],
          [
            85.1222991,
            28.0912138
          ],
          [
            85.130407,
            28.0852858
          ],
          [
            85.1356456,
            28.0840314
          ],
          [
            85.1444325,
            28.0867587
          ],
          [
            85.1553732,
            28.0884492
          ],
          [
            85.1699525,
            28.0830273
          ],
          [
            85.1666817,
            28.0772098
          ],
          [
            85.1584279,
            28.0721646
          ],
          [
            85.1430987,
            28.0544107
          ],
          [
            85.1345273,
            28.0418613
          ],
          [
            85.133721,
            28.0372875
          ],
          [
            85.1400502,
            28.028989
          ],
          [
            85.1440717,
            28.0276646
          ],
          [
            85.1562359,
            28.0266713
          ],
          [
            85.1616224,
            28.023727
          ],
          [
            85.1663248,
            28.0244778
          ],
          [
            85.1690975,
            28.0217638
          ],
          [
            85.1735921,
            28.0207351
          ],
          [
            85.1784152,
            28.0215216
          ],
          [
            85.181934,
            28.0200091
          ],
          [
            85.1870915,
            28.0190147
          ],
          [
            85.187078,
            28.0161139
          ],
          [
            85.1858715,
            28.0152826
          ],
          [
            85.1838998,
            28.0119052
          ],
          [
            85.1832004,
            28.0072666
          ],
          [
            85.1845181,
            28.0037781
          ],
          [
            85.1839755,
            28.0006435
          ],
          [
            85.1862299,
            27.9967729
          ],
          [
            85.1820072,
            27.9930334
          ],
          [
            85.1828312,
            27.990253
          ],
          [
            85.1801505,
            27.9881798
          ],
          [
            85.1802678,
            27.9817606
          ],
          [
            85.1766313,
            27.9830396
          ],
          [
            85.1734235,
            27.9821816
          ],
          [
            85.1693234,
            27.9819378
          ],
          [
            85.1677699,
            27.9828238
          ],
          [
            85.1666133,
            27.9827315
          ],
          [
            85.162772,
            27.9842586
          ],
          [
            85.162239,
            27.9847873
          ],
          [
            85.1621644,
            27.9858133
          ],
          [
            85.1615685,
            27.9861218
          ],
          [
            85.1603222,
            27.985629
          ],
          [
            85.157336,
            27.9824357
          ],
          [
            85.1553349,
            27.9815188
          ],
          [
            85.1526063,
            27.9813731
          ],
          [
            85.1524439,
            27.9803795
          ],
          [
            85.1507067,
            27.9792665
          ],
          [
            85.1397899,
            27.9799734
          ],
          [
            85.1369457,
            27.9807856
          ],
          [
            85.1285324,
            27.9792665
          ],
          [
            85.1273062,
            27.9782137
          ],
          [
            85.123934,
            27.9808457
          ],
          [
            85.122827,
            27.9825904
          ],
          [
            85.1189697,
            27.986145
          ],
          [
            85.12283,
            27.9897416
          ],
          [
            85.1238218,
            27.9899896
          ],
          [
            85.1224025,
            27.9937467
          ],
          [
            85.1192865,
            27.9951768
          ],
          [
            85.1185548,
            27.9969274
          ],
          [
            85.1141047,
            27.9986731
          ],
          [
            85.1131657,
            28.0023052
          ],
          [
            85.1113174,
            28.0026507
          ],
          [
            85.110029,
            28.0051871
          ],
          [
            85.1101625,
            28.0065279
          ],
          [
            85.1036133,
            28.0106636
          ],
          [
            85.10083,
            28.0104584
          ],
          [
            85.0981517,
            28.0112001
          ],
          [
            85.0987418,
            28.0129678
          ],
          [
            85.0980646,
            28.0135463
          ],
          [
            85.0971745,
            28.0135705
          ],
          [
            85.0960716,
            28.0122124
          ],
          [
            85.0953716,
            28.0121296
          ],
          [
            85.0951946,
            28.0130815
          ],
          [
            85.0937783,
            28.0140381
          ],
          [
            85.0877251,
            28.0124042
          ],
          [
            85.0835843,
            28.013175
          ],
          [
            85.0811214,
            28.0141828
          ],
          [
            85.0761509,
            28.0125322
          ],
          [
            85.070014,
            28.0130626
          ],
          [
            85.0673126,
            28.0121457
          ],
          [
            85.0643388,
            28.0104272
          ],
          [
            85.059459,
            28.0064292
          ]
        ]
      }
    }
  ]
}