{
  "type": "FeatureCollection",
  "features": [
    {
      "type": "Feature",
      "properties": {
        "name": "Kumarakom Grama Panchayat",
        "panchayat": "Kumarakom",
        "population": 23540,
        "zone": "South-West"
      },
      "geometry": {
        "type": "LineString",
        "coordinates": [
          [
            76.391852,
            9.5481041
          ],
          [
            76.3935073,
            9.5767615
          ],
          [
            76.3961726,
            9.6021721
          ],
          [
            76.3984447,
            9.6288671
          ],
          [
            76.4116394,
            9.6321986
          ],
          [
            76.4132273,
            9.6323572
          ],
          [
            76.4183557,
            9.6319764
          ],
          [
            76.4195895,
            9.6322938
          ],
          [
            76.4204693,
            9.6329284
          ],
          [
            76.4224648,
            9.63314
          ],
          [
            76.4246964,
            9.6322938
          ],
          [
            76.4274537,
            9.6306542
          ],
          [
            76.429106,
            9.6289512
          ],
          [
            76.4320564,
            9.6276396
          ],
          [
            76.4379895,
            9.6256933
          ],
          [
            76.439116,
            9.6263174
          ],
          [
            76.4401996,
            9.6259683
          ],
          [
            76.4407575,
            9.6253971
          ],
          [
            76.4410257,
            9.6238951
          ],
          [
            76.4417767,
            9.6224036
          ],
          [
            76.441369,
            9.6208804
          ],
          [
            76.440146,
            9.6204043
          ],
          [
            76.4399421,
            9.6197168
          ],
          [
            76.4401245,
            9.6187225
          ],
          [
            76.440736,
            9.6181512
          ],
          [
            76.4462185,
            9.6165751
          ],
          [
            76.448257,
            9.6162789
          ],
          [
            76.4502096,
            9.6170829
          ],
          [
            76.4506066,
            9.6159827
          ],
          [
            76.4531386,
            9.6151471
          ],
          [
            76.4537716,
            9.6154644
          ],
          [
            76.4558208,
            9.6181724
          ],
          [
            76.4578807,
            9.617982
          ],
          [
            76.4582777,
            9.6175377
          ],
          [
            76.4575267,
            9.6156337
          ],
          [
            76.4582455,
            9.6117303
          ],
          [
            76.4571404,
            9.6097628
          ],
          [
            76.4558315,
            9.6038389
          ],
          [
            76.4562177,
            9.5998825
          ],
          [
            76.4560246,
            9.5962858
          ],
          [
            76.4553808,
            9.5934083
          ],
          [
            76.4572906,
            9.590002
          ],
          [
            76.4578056,
            9.5884363
          ],
          [
            76.4598012,
            9.5881824
          ],
          [
            76.4588785,
            9.5856858
          ],
          [
            76.4595222,
            9.5844586
          ],
          [
            76.4605307,
            9.5808194
          ],
          [
            76.460402,
            9.5789786
          ],
          [
            76.459608,
            9.5778784
          ],
          [
            76.4592862,
            9.576101
          ],
          [
            76.4559817,
            9.5751912
          ],
          [
            76.4555097,
            9.5744295
          ],
          [
            76.4547156,
            9.572229
          ],
          [
            76.4540934,
            9.5685261
          ],
          [
            76.4526343,
            9.5639768
          ],
          [
            76.4511659,
            9.5569397
          ],
          [
            76.4260813,
            9.5494919
          ],
          [
            76.4225287,
            9.5564488
          ],
          [
            76.4154278,
            9.558298
          ],
          [
            76.4151137,
            9.5630898
          ],
          [
            76.4049198,
            9.5591865
          ],
          [
            76.4044415,
            9.5534924
          ],
          [
            76.391852,
            9.5481041
          ]
        ]
      }
    },
    {
      "type": "Feature",
      "properties": {
        "name": "Aymanam Grama Panchayat",
        "panchayat": "Aymanam",
        "population": 34820,
        "zone": "North-West"
      },
      "geometry": {
        "type": "LineString",
        "coordinates": [
          [
            76.3984447,
            9.6288671
          ],
          [
            76.3995266,
            9.6397615
          ],
          [
            76.3993478,
            9.6405835
          ],
          [
            76.4035392,
            9.6408403
          ],
          [
            76.4106846,
            9.6399836
          ],
          [
            76.4171433,
            9.6395922
          ],
          [
            76.4316165,
            9.6372441
          ],
          [
            76.4370131,
            9.636694
          ],
          [
            76.4419592,
            9.6375085
          ],
          [
            76.4489865,
            9.6410519
          ],
          [
            76.4583635,
            9.6439501
          ],
          [
            76.4611101,
            9.6445
          ],
          [
            76.4646292,
            9.6447116
          ],
          [
            76.4680409,
            9.644204
          ],
          [
            76.4754009,
            9.6415173
          ],
          [
            76.4762378,
            9.6395923
          ],
          [
            76.4790058,
            9.6359959
          ],
          [
            76.4830399,
            9.6342824
          ],
          [
            76.4864087,
            9.6333515
          ],
          [
            76.4869237,
            9.6326322
          ],
          [
            76.4870524,
            9.6317649
          ],
          [
            76.4834046,
            9.6296916
          ],
          [
            76.4829325,
            9.6285916
          ],
          [
            76.4865267,
            9.6246989
          ],
          [
            76.4881468,
            9.6242759
          ],
          [
            76.4895737,
            9.6246038
          ],
          [
            76.4900673,
            9.6237258
          ],
          [
            76.4900136,
            9.6220122
          ],
          [
            76.4908933,
            9.621441
          ],
          [
            76.4931464,
            9.6223719
          ],
          [
            76.4953458,
            9.6220968
          ],
          [
            76.4962148,
            9.6203938
          ],
          [
            76.4976955,
            9.619061
          ],
          [
            76.5041434,
            9.6177334
          ],
          [
            76.5054072,
            9.6179342
          ],
          [
            76.5069394,
            9.6162353
          ],
          [
            76.5088624,
            9.6160723
          ],
          [
            76.5096045,
            9.6173156
          ],
          [
            76.5107846,
            9.6184369
          ],
          [
            76.512119,
            9.6175738
          ],
          [
            76.5157769,
            9.6184909
          ],
          [
            76.5169054,
            9.6165592
          ],
          [
            76.5136116,
            9.6136132
          ],
          [
            76.5129303,
            9.6122698
          ],
          [
            76.5100122,
            9.6118572
          ],
          [
            76.5107739,
            9.6084193
          ],
          [
            76.5101489,
            9.6067849
          ],
          [
            76.5085262,
            9.6064412
          ],
          [
            76.5080058,
            9.6040504
          ],
          [
            76.509068,
            9.6021992
          ],
          [
            76.5118039,
            9.6005913
          ],
          [
            76.5119862,
            9.5993959
          ],
          [
            76.5113747,
            9.5991103
          ],
          [
            76.5069115,
            9.5995122
          ],
          [
            76.503017,
            9.5993113
          ],
          [
            76.5023893,
            9.5995652
          ],
          [
            76.5014559,
            9.6012578
          ],
          [
            76.5001469,
            9.602104
          ],
          [
            76.4993047,
            9.6022362
          ],
          [
            76.4975989,
            9.6016333
          ],
          [
            76.4947665,
            9.6013318
          ],
          [
            76.491403,
            9.6020088
          ],
          [
            76.4872188,
            9.6038177
          ],
          [
            76.4771068,
            9.6028656
          ],
          [
            76.4749074,
            9.6037754
          ],
          [
            76.4734697,
            9.6070019
          ],
          [
            76.4665925,
            9.6076894
          ],
          [
            76.4640498,
            9.6098262
          ],
          [
            76.4582455,
            9.6117303
          ],
          [
            76.4575267,
            9.6156337
          ],
          [
            76.4582777,
            9.6175377
          ],
          [
            76.4578807,
            9.617982
          ],
          [
            76.4558208,
            9.6181724
          ],
          [
            76.4537716,
            9.6154644
          ],
          [
            76.4531386,
            9.6151471
          ],
          [
            76.4506066,
            9.6159827
          ],
          [
            76.4502096,
            9.6170829
          ],
          [
            76.448257,
            9.6162789
          ],
          [
            76.4462185,
            9.6165751
          ],
          [
            76.440736,
            9.6181512
          ],
          [
            76.4401245,
            9.6187225
          ],
          [
            76.4399421,
            9.6197168
          ],
          [
            76.440146,
            9.6204043
          ],
          [
            76.441369,
            9.6208804
          ],
          [
            76.4417767,
            9.6224036
          ],
          [
            76.4410257,
            9.6238951
          ],
          [
            76.4407575,
            9.6253971
          ],
          [
            76.4401996,
            9.6259683
          ],
          [
            76.439116,
            9.6263174
          ],
          [
            76.4379895,
            9.6256933
          ],
          [
            76.4320564,
            9.6276396
          ],
          [
            76.429106,
            9.6289512
          ],
          [
            76.4274537,
            9.6306542
          ],
          [
            76.4246964,
            9.6322938
          ],
          [
            76.4224648,
            9.63314
          ],
          [
            76.4204693,
            9.6329284
          ],
          [
            76.4195895,
            9.6322938
          ],
          [
            76.4183557,
            9.6319764
          ],
          [
            76.4132273,
            9.6323572
          ],
          [
            76.4116394,
            9.6321986
          ],
          [
            76.3984447,
            9.6288671
          ]
        ]
      }
    },
    {
      "type": "Feature",
      "properties": {
        "name": "Arpookkara Grama Panchayat",
        "panchayat": "Arpookkara",
        "population": 18230,
        "zone": "North-East"
      },
      "geometry": {
        "type": "LineString",
        "coordinates": [
          [
            76.3978616,
            9.6474159
          ],
          [
            76.4043438,
            9.6470703
          ],
          [
            76.4086461,
            9.6472078
          ],
          [
            76.4136243,
            9.6478636
          ],
          [
            76.4199972,
            9.6456636
          ],
          [
            76.4252114,
            9.645727
          ],
          [
            76.4317775,
            9.649429
          ],
          [
            76.4378071,
            9.6559444
          ],
          [
            76.4424205,
            9.6559656
          ],
          [
            76.4451241,
            9.6585886
          ],
          [
            76.4472699,
            9.6583982
          ],
          [
            76.4513469,
            9.6568117
          ],
          [
            76.4530206,
            9.6567271
          ],
          [
            76.4541149,
            9.6560713
          ],
          [
            76.4580416,
            9.6565367
          ],
          [
            76.4606595,
            9.6547598
          ],
          [
            76.4657235,
            9.654104
          ],
          [
            76.4678478,
            9.6533425
          ],
          [
            76.4699507,
            9.6531521
          ],
          [
            76.4781046,
            9.6528136
          ],
          [
            76.482718,
            9.6543367
          ],
          [
            76.4846492,
            9.6544636
          ],
          [
            76.485486,
            9.6550348
          ],
          [
            76.4882111,
            9.6553944
          ],
          [
            76.4893698,
            9.6549713
          ],
          [
            76.4953136,
            9.6485405
          ],
          [
            76.4960646,
            9.6484982
          ],
          [
            76.4978027,
            9.6492809
          ],
          [
            76.5002918,
            9.6492174
          ],
          [
            76.504991,
            9.6484559
          ],
          [
            76.5145826,
            9.6455578
          ],
          [
            76.5149689,
            9.6435904
          ],
          [
            76.5148187,
            9.6420038
          ],
          [
            76.5192175,
            9.640523
          ],
          [
            76.5215564,
            9.6410519
          ],
          [
            76.5231871,
            9.6389576
          ],
          [
            76.5252256,
            9.6378576
          ],
          [
            76.5258264,
            9.6370959
          ],
          [
            76.5234553,
            9.6360858
          ],
          [
            76.5209064,
            9.6365243
          ],
          [
            76.516648,
            9.6345833
          ],
          [
            76.5169628,
            9.6322817
          ],
          [
            76.5185308,
            9.6310668
          ],
          [
            76.5179729,
            9.6297128
          ],
          [
            76.5176296,
            9.6265395
          ],
          [
            76.5173488,
            9.6260678
          ],
          [
            76.5153805,
            9.6249938
          ],
          [
            76.5155804,
            9.622192
          ],
          [
            76.5150654,
            9.6193571
          ],
          [
            76.5157769,
            9.6184909
          ],
          [
            76.512119,
            9.6175738
          ],
          [
            76.5107846,
            9.6184369
          ],
          [
            76.5096045,
            9.6173156
          ],
          [
            76.5088624,
            9.6160723
          ],
          [
            76.5069394,
            9.6162353
          ],
          [
            76.5054072,
            9.6179342
          ],
          [
            76.5041434,
            9.6177334
          ],
          [
            76.4976955,
            9.619061
          ],
          [
            76.4962148,
            9.6203938
          ],
          [
            76.4953458,
            9.6220968
          ],
          [
            76.4945412,
            9.6223507
          ],
          [
            76.4931464,
            9.6223719
          ],
          [
            76.4908933,
            9.621441
          ],
          [
            76.4900136,
            9.6220122
          ],
          [
            76.4900673,
            9.6237258
          ],
          [
            76.4895737,
            9.6246038
          ],
          [
            76.4881468,
            9.6242759
          ],
          [
            76.4865267,
            9.6246989
          ],
          [
            76.4829325,
            9.6285916
          ],
          [
            76.4834046,
            9.6296916
          ],
          [
            76.4870524,
            9.6317649
          ],
          [
            76.4869237,
            9.6326322
          ],
          [
            76.4864087,
            9.6333515
          ],
          [
            76.4830399,
            9.6342824
          ],
          [
            76.4790058,
            9.6359959
          ],
          [
            76.4762378,
            9.6395923
          ],
          [
            76.4754009,
            9.6415173
          ],
          [
            76.4680409,
            9.644204
          ],
          [
            76.4646292,
            9.6447116
          ],
          [
            76.4611101,
            9.6445
          ],
          [
            76.4583635,
            9.6439501
          ],
          [
            76.4489865,
            9.6410519
          ],
          [
            76.4419592,
            9.6375085
          ],
          [
            76.4370131,
            9.636694
          ],
          [
            76.4316165,
            9.6372441
          ],
          [
            76.4171433,
            9.6395922
          ],
          [
            76.4106846,
            9.6399836
          ],
          [
            76.4035392,
            9.6408403
          ],
          [
            76.3993478,
            9.6405835
          ],
          [
            76.3978616,
            9.6474159
          ]
        ]
      }
    },
    {
      "type": "Feature",
      "properties": {
        "name": "Kallara Grama Panchayat",
        "panchayat": "Kallara",
        "population": 19450,
        "zone": "North"
      },
      "geometry": {
        "type": "LineString",
        "coordinates": [
          [
            76.4293419,
            9.7434178
          ],
          [
            76.430817,
            9.744278
          ],
          [
            76.4392407,
            9.7469239
          ],
          [
            76.4458379,
            9.7476687
          ],
          [
            76.4469637,
            9.7480411
          ],
          [
            76.4518459,
            9.7509681
          ],
          [
            76.4533596,
            9.7494042
          ],
          [
            76.453939,
            9.7467199
          ],
          [
            76.4546229,
            9.7457723
          ],
          [
            76.4555562,
            9.7452013
          ],
          [
            76.458131,
            9.7446621
          ],
          [
            76.4588391,
            9.7442339
          ],
          [
            76.4599494,
            9.7417438
          ],
          [
            76.4602874,
            9.7392696
          ],
          [
            76.4616874,
            9.737065
          ],
          [
            76.4630392,
            9.7315772
          ],
          [
            76.4660002,
            9.7273423
          ],
          [
            76.4669496,
            9.7274533
          ],
          [
            76.4680761,
            9.7269775
          ],
          [
            76.4698624,
            9.7256293
          ],
          [
            76.4712785,
            9.7265175
          ],
          [
            76.473628,
            9.7255976
          ],
          [
            76.4757039,
            9.7268506
          ],
          [
            76.4764763,
            9.7269617
          ],
          [
            76.4786488,
            9.726692
          ],
          [
            76.47955,
            9.726121
          ],
          [
            76.4804322,
            9.7238932
          ],
          [
            76.4799059,
            9.722726
          ],
          [
            76.4811559,
            9.7213481
          ],
          [
            76.4839026,
            9.7148474
          ],
          [
            76.4859256,
            9.7119293
          ],
          [
            76.4865506,
            9.7098056
          ],
          [
            76.4882447,
            9.7078602
          ],
          [
            76.4890012,
            9.7046017
          ],
          [
            76.4913038,
            9.7043098
          ],
          [
            76.4918301,
            9.7035479
          ],
          [
            76.4921262,
            9.7007594
          ],
          [
            76.4917808,
            9.6974684
          ],
          [
            76.492233,
            9.6949714
          ],
          [
            76.4903354,
            9.6952879
          ],
          [
            76.4890909,
            9.6945265
          ],
          [
            76.4876961,
            9.6927075
          ],
          [
            76.4872026,
            9.6907827
          ],
          [
            76.481452,
            9.6879484
          ],
          [
            76.4794564,
            9.6864678
          ],
          [
            76.4772033,
            9.6830412
          ],
          [
            76.4778685,
            9.6774782
          ],
          [
            76.476624,
            9.676907
          ],
          [
            76.4742207,
            9.6769494
          ],
          [
            76.4732766,
            9.6751937
          ],
          [
            76.4716673,
            9.6733745
          ],
          [
            76.4687276,
            9.6738611
          ],
          [
            76.4666676,
            9.6773301
          ],
          [
            76.4659227,
            9.6773513
          ],
          [
            76.4528935,
            9.6962858
          ],
          [
            76.4293419,
            9.7434178
          ]
        ]
      }
    },
    {
      "type": "Feature",
      "properties": {
        "name": "Neendoor Grama Panchayat",
        "panchayat": "Neendoor",
        "population": 15640,
        "zone": "Central-North"
      },
      "geometry": {
        "type": "LineString",
        "coordinates": [
          [
            76.4530206,
            9.6567271
          ],
          [
            76.4539861,
            9.6569809
          ],
          [
            76.455059,
            9.6583136
          ],
          [
            76.4555955,
            9.6596886
          ],
          [
            76.455574,
            9.6628193
          ],
          [
            76.4539218,
            9.6677056
          ],
          [
            76.4551663,
            9.6722323
          ],
          [
            76.4560675,
            9.6745591
          ],
          [
            76.4572048,
            9.676209
          ],
          [
            76.4629555,
            9.6774359
          ],
          [
            76.4666676,
            9.6773301
          ],
          [
            76.4687276,
            9.6738611
          ],
          [
            76.4716673,
            9.6733745
          ],
          [
            76.4732766,
            9.6751937
          ],
          [
            76.4742207,
            9.6769494
          ],
          [
            76.476624,
            9.676907
          ],
          [
            76.4778685,
            9.6774782
          ],
          [
            76.4772033,
            9.6830412
          ],
          [
            76.4794564,
            9.6864678
          ],
          [
            76.481452,
            9.6879484
          ],
          [
            76.4872026,
            9.6907827
          ],
          [
            76.4876961,
            9.6927075
          ],
          [
            76.4890909,
            9.6945265
          ],
          [
            76.4903354,
            9.6952879
          ],
          [
            76.4944982,
            9.6946534
          ],
          [
            76.4986829,
            9.6952876
          ],
          [
            76.5008717,
            9.7016692
          ],
          [
            76.5024376,
            9.7040656
          ],
          [
            76.5033388,
            9.7045943
          ],
          [
            76.5053773,
            9.7034522
          ],
          [
            76.5067076,
            9.703706
          ],
          [
            76.5104842,
            9.7059903
          ],
          [
            76.511364,
            9.7057788
          ],
          [
            76.5119862,
            9.7049328
          ],
          [
            76.5131664,
            9.7047847
          ],
          [
            76.5154838,
            9.7066882
          ],
          [
            76.5165567,
            9.7068363
          ],
          [
            76.5176296,
            9.7065825
          ],
          [
            76.5198827,
            9.7051443
          ],
          [
            76.5211057,
            9.7048058
          ],
          [
            76.5228003,
            9.7060364
          ],
          [
            76.5241407,
            9.7062796
          ],
          [
            76.524086,
            9.7041007
          ],
          [
            76.5220177,
            9.7035051
          ],
          [
            76.520226,
            9.7023101
          ],
          [
            76.519711,
            9.7009141
          ],
          [
            76.5147757,
            9.6959965
          ],
          [
            76.5124154,
            9.6931094
          ],
          [
            76.5164065,
            9.6901058
          ],
          [
            76.5183163,
            9.6878532
          ],
          [
            76.5225971,
            9.6814125
          ],
          [
            76.5216529,
            9.6803231
          ],
          [
            76.5217388,
            9.6774887
          ],
          [
            76.5184021,
            9.676833
          ],
          [
            76.5149152,
            9.6768436
          ],
          [
            76.5141642,
            9.6760504
          ],
          [
            76.5146041,
            9.6693661
          ],
          [
            76.5143037,
            9.6674835
          ],
          [
            76.5144431,
            9.6657067
          ],
          [
            76.5162778,
            9.6616558
          ],
          [
            76.51631,
            9.659879
          ],
          [
            76.5160417,
            9.6562723
          ],
          [
            76.5148401,
            9.6544002
          ],
          [
            76.5150547,
            9.6518617
          ],
          [
            76.5143037,
            9.6476309
          ],
          [
            76.5145826,
            9.6455578
          ],
          [
            76.504991,
            9.6484559
          ],
          [
            76.5002918,
            9.6492174
          ],
          [
            76.4978027,
            9.6492809
          ],
          [
            76.4960646,
            9.6484982
          ],
          [
            76.4953136,
            9.6485405
          ],
          [
            76.4893698,
            9.6549713
          ],
          [
            76.4882111,
            9.6553944
          ],
          [
            76.485486,
            9.6550348
          ],
          [
            76.4846492,
            9.6544636
          ],
          [
            76.482718,
            9.6543367
          ],
          [
            76.4790487,
            9.6530675
          ],
          [
            76.4769888,
            9.6527502
          ],
          [
            76.4678478,
            9.6533425
          ],
          [
            76.4657235,
            9.654104
          ],
          [
            76.4606595,
            9.6547598
          ],
          [
            76.4580416,
            9.6565367
          ],
          [
            76.4541149,
            9.6560713
          ],
          [
            76.4530206,
            9.6567271
          ]
        ]
      }
    },
    {
      "type": "Feature",
      "properties": {
        "name": "Vechoor Grama Panchayat",
        "panchayat": "Vechoor",
        "population": 17800,
        "zone": "West"
      },
      "geometry": {
        "type": "LineString",
        "coordinates": [
          [
            76.3978616,
            9.6474159
          ],
          [
            76.3964796,
            9.653829
          ],
          [
            76.3985191,
            9.6692127
          ],
          [
            76.4014894,
            9.677649
          ],
          [
            76.4022805,
            9.6860265
          ],
          [
            76.4008932,
            9.6866035
          ],
          [
            76.4013223,
            9.6874545
          ],
          [
            76.4049922,
            9.6895575
          ],
          [
            76.4143646,
            9.6937888
          ],
          [
            76.4204269,
            9.6940232
          ],
          [
            76.4314014,
            9.6952175
          ],
          [
            76.434369,
            9.6947761
          ],
          [
            76.4349484,
            9.6958492
          ],
          [
            76.4364234,
            9.6966368
          ],
          [
            76.4418493,
            9.6983243
          ],
          [
            76.447161,
            9.6974243
          ],
          [
            76.4489432,
            9.6966541
          ],
          [
            76.4518756,
            9.6961262
          ],
          [
            76.4528935,
            9.6962858
          ],
          [
            76.4659227,
            9.6773513
          ],
          [
            76.4629555,
            9.6774359
          ],
          [
            76.4572048,
            9.676209
          ],
          [
            76.4560675,
            9.6745591
          ],
          [
            76.4539218,
            9.6677056
          ],
          [
            76.455574,
            9.6628193
          ],
          [
            76.4555955,
            9.6596886
          ],
          [
            76.455059,
            9.6583136
          ],
          [
            76.4539861,
            9.6569809
          ],
          [
            76.4513469,
            9.6568117
          ],
          [
            76.4472699,
            9.6583982
          ],
          [
            76.4451241,
            9.6585886
          ],
          [
            76.4424205,
            9.6559656
          ],
          [
            76.4378071,
            9.6559444
          ],
          [
            76.4317775,
            9.649429
          ],
          [
            76.4252114,
            9.645727
          ],
          [
            76.4199972,
            9.6456636
          ],
          [
            76.4136243,
            9.6478636
          ],
          [
            76.4086461,
            9.6472078
          ],
          [
            76.4043438,
            9.6470703
          ],
          [
            76.3978616,
            9.6474159
          ]
        ]
      }
    },
    {
      "type": "Feature",
      "properties": {
        "name": "Thiruvarppu Grama Panchayat",
        "panchayat": "Thiruvarppu",
        "population": 14200,
        "zone": "South"
      },
      "geometry": {
        "type": "LineString",
        "coordinates": [
          [
            76.4511659,
            9.5569397
          ],
          [
            76.4526343,
            9.5639768
          ],
          [
            76.4540934,
            9.5685261
          ],
          [
            76.4547156,
            9.572229
          ],
          [
            76.4555097,
            9.5744295
          ],
          [
            76.4559817,
            9.5751912
          ],
          [
            76.4592862,
            9.576101
          ],
          [
            76.459608,
            9.5778784
          ],
          [
            76.460402,
            9.5789786
          ],
          [
            76.4605307,
            9.5808194
          ],
          [
            76.4595222,
            9.5844586
          ],
          [
            76.4588785,
            9.5856858
          ],
          [
            76.4598012,
            9.5881824
          ],
          [
            76.4578056,
            9.5884363
          ],
          [
            76.4572906,
            9.590002
          ],
          [
            76.4553808,
            9.5934083
          ],
          [
            76.4560246,
            9.5962858
          ],
          [
            76.4562177,
            9.5998825
          ],
          [
            76.4558315,
            9.6038389
          ],
          [
            76.4571404,
            9.6097628
          ],
          [
            76.4582455,
            9.6117303
          ],
          [
            76.4640498,
            9.6098262
          ],
          [
            76.4665925,
            9.6076894
          ],
          [
            76.4734697,
            9.6070019
          ],
          [
            76.4749074,
            9.6037754
          ],
          [
            76.4771068,
            9.6028656
          ],
          [
            76.4872188,
            9.6038177
          ],
          [
            76.491403,
            9.6020088
          ],
          [
            76.4935434,
            9.6014269
          ],
          [
            76.4964831,
            9.6014164
          ],
          [
            76.4993047,
            9.6022362
          ],
          [
            76.5001469,
            9.602104
          ],
          [
            76.5014559,
            9.6012578
          ],
          [
            76.5023893,
            9.5995652
          ],
          [
            76.503017,
            9.5993113
          ],
          [
            76.5053236,
            9.5994699
          ],
          [
            76.5038753,
            9.5980735
          ],
          [
            76.5013808,
            9.5935035
          ],
          [
            76.4989239,
            9.5907266
          ],
          [
            76.4979315,
            9.5905362
          ],
          [
            76.4952385,
            9.5923399
          ],
          [
            76.4944124,
            9.5923399
          ],
          [
            76.490947,
            9.5896211
          ],
          [
            76.4909899,
            9.587262
          ],
          [
            76.4885867,
            9.5874101
          ],
          [
            76.4883506,
            9.5867119
          ],
          [
            76.4889836,
            9.584247
          ],
          [
            76.4875674,
            9.5820994
          ],
          [
            76.4880824,
            9.5803856
          ],
          [
            76.4894986,
            9.5805549
          ],
          [
            76.4903355,
            9.5798672
          ],
          [
            76.4902282,
            9.5794335
          ],
          [
            76.4888227,
            9.5786612
          ],
          [
            76.4889514,
            9.5783121
          ],
          [
            76.4899921,
            9.5781957
          ],
          [
            76.4886939,
            9.5747151
          ],
          [
            76.488018,
            9.5675316
          ],
          [
            76.4914191,
            9.5615435
          ],
          [
            76.4925778,
            9.5599777
          ],
          [
            76.4937472,
            9.5591948
          ],
          [
            76.4988756,
            9.5588351
          ],
          [
            76.4998841,
            9.5576395
          ],
          [
            76.501826,
            9.5561795
          ],
          [
            76.5019011,
            9.5535557
          ],
          [
            76.5057635,
            9.5517782
          ],
          [
            76.5069008,
            9.5506673
          ],
          [
            76.5073514,
            9.5497574
          ],
          [
            76.5059888,
            9.5453137
          ],
          [
            76.5043473,
            9.5337175
          ],
          [
            76.5016436,
            9.530702
          ],
          [
            76.4999699,
            9.5295699
          ],
          [
            76.4973199,
            9.5292842
          ],
          [
            76.4940905,
            9.5294852
          ],
          [
            76.4825857,
            9.5284067
          ],
          [
            76.4787054,
            9.5374843
          ],
          [
            76.4652767,
            9.5420467
          ],
          [
            76.4654995,
            9.5612887
          ],
          [
            76.4511659,
            9.5569397
          ]
        ]
      }
    }
  ]
}